Location ID,ZIP,Primary_City,State,County,Estimated_population_2013
1,90650,Norwalk,CA,Los Angeles County,96410
2,90280,South Gate,CA,Los Angeles County,87540
3,91331,Pacoima,CA,Los Angeles County,86700
4,90201,Bell Gardens,CA,Los Angeles County,85916
5,92335,Fontana,CA,San Bernardino County,82569
6,92704,Santa Ana,CA,Orange County,82135
7,92683,Westminster,CA,Orange County,81643
8,90805,Long Beach,CA,Los Angeles County,81211
9,90250,Hawthorne,CA,Los Angeles County,80909
10,92154,San Diego,CA,San Diego County,80358
11,90011,Los Angeles,CA,Los Angeles County,79469
12,91911,Chula Vista,CA,San Diego County,77875
13,92336,Fontana,CA,San Bernardino County,77592
14,93033,Oxnard,CA,Ventura County,77549
15,91744,La Puente,CA,Los Angeles County,77447
16,91342,Sylmar,CA,Los Angeles County,77346
17,91709,Chino Hills,CA,San Bernardino County,74528
18,94565,Pittsburg,CA,Contra Costa County,74517
19,95076,Watsonville,CA,Santa Cruz County,73953
20,92804,Anaheim,CA,Orange County,72507
21,92503,Riverside,CA,Riverside County,71856
22,92376,Rialto,CA,San Bernardino County,70686
23,91706,Baldwin Park,CA,Los Angeles County,70601
24,91910,Chula Vista,CA,San Diego County,69192
25,94112,San Francisco,CA,San Francisco County,69192
26,90255,Huntington Park,CA,Los Angeles County,69140
27,90044,Los Angeles,CA,Los Angeles County,68666
28,93065,Simi Valley,CA,Ventura County,67782
29,91710,Chino,CA,San Bernardino County,66234
30,90706,Bellflower,CA,Los Angeles County,65089
31,92345,Hesperia,CA,San Bernardino County,65019
32,94587,Union City,CA,Alameda County,65015
33,94544,Hayward,CA,Alameda County,65008
34,92509,Riverside,CA,Riverside County,64867
35,92126,San Diego,CA,San Diego County,64251
36,92054,Oceanside,CA,San Diego County,64212
37,93722,Fresno,CA,Fresno County,63218
38,93550,Palmdale,CA,Los Angeles County,62601
39,91766,Pomona,CA,Los Angeles County,62388
40,94558,Napa,CA,Napa County,61833
41,94536,Fremont,CA,Alameda County,61805
42,94533,Fairfield,CA,Solano County,61596
43,90631,La Habra,CA,Orange County,61495
44,95823,Sacramento,CA,Sacramento County,61300
45,92805,Anaheim,CA,Orange County,61203
46,92703,Santa Ana,CA,Orange County,60877
47,92882,Corona,CA,Riverside County,60821
48,92677,Laguna Niguel,CA,Orange County,60596
49,91335,Reseda,CA,Los Angeles County,60531
50,92553,Moreno Valley,CA,Riverside County,60407
51,92592,Temecula,CA,Riverside County,60345
52,90262,Lynwood,CA,Los Angeles County,60297
53,92114,San Diego,CA,San Diego County,59702
54,92707,Santa Ana,CA,Orange County,59663
55,95035,Milpitas,CA,Santa Clara County,58980
56,95630,Folsom,CA,Sacramento County,58478
57,90660,Pico Rivera,CA,Los Angeles County,58453
58,93905,Salinas,CA,Monterey County,58405
59,94080,South San Francisco,CA,San Mateo County,58023
60,95014,Cupertino,CA,Santa Clara County,57835
61,95123,San Jose,CA,Santa Clara County,57815
62,93307,Bakersfield,CA,Kern County,57592
63,95206,Stockton,CA,San Joaquin County,56882
64,90022,Los Angeles,CA,Los Angeles County,56755
65,92630,Lake Forest,CA,Orange County,56565
66,91770,Rosemead,CA,Los Angeles County,56530
67,93535,Lancaster,CA,Los Angeles County,56335
68,95624,Elk Grove,CA,Sacramento County,55670
69,94509,Antioch,CA,Contra Costa County,55659
70,95127,San Jose,CA,Santa Clara County,55355
71,90745,Carson,CA,Los Angeles County,55170
72,93257,Porterville,CA,Tulare County,55076
73,95758,Elk Grove,CA,Sacramento County,55069
74,92231,Calexico,CA,Imperial County,54934
75,94015,Daly City,CA,San Mateo County,54895
76,92021,El Cajon,CA,San Diego County,54814
77,90640,Montebello,CA,Los Angeles County,54639
78,91761,Ontario,CA,San Bernardino County,54539
79,94110,San Francisco,CA,San Francisco County,54501
80,93536,Lancaster,CA,Los Angeles County,54292
81,91730,Rancho Cucamonga,CA,San Bernardino County,53760
82,92801,Anaheim,CA,Orange County,53556
83,91402,Panorama City,CA,Los Angeles County,53526
84,92562,Murrieta,CA,Riverside County,53431
85,92708,Fountain Valley,CA,Orange County,53324
86,93030,Oxnard,CA,Ventura County,53101
87,92105,San Diego,CA,San Diego County,53020
88,92646,Huntington Beach,CA,Orange County,52992
89,94538,Fremont,CA,Alameda County,52856
90,95687,Vacaville,CA,Solano County,52759
91,90026,Los Angeles,CA,Los Angeles County,52678
92,93274,Tulare,CA,Tulare County,52570
93,91732,El Monte,CA,Los Angeles County,52470
94,93230,Hanford,CA,Kings County,52413
95,90042,Los Angeles,CA,Los Angeles County,52279
96,95111,San Jose,CA,Santa Clara County,52097
97,90703,Cerritos,CA,Los Angeles County,51994
98,91762,Ontario,CA,San Bernardino County,51740
99,91745,Hacienda Heights,CA,Los Angeles County,51729
100,93063,Simi Valley,CA,Ventura County,51726
101,92647,Huntington Beach,CA,Orange County,51717
102,93906,Salinas,CA,Monterey County,51688
103,94539,Fremont,CA,Alameda County,51664
104,95340,Merced,CA,Merced County,51634
105,92129,San Diego,CA,San Diego County,51624
106,92201,Indio,CA,Riverside County,51423
107,91977,Spring Valley,CA,San Diego County,51309
108,95122,San Jose,CA,Santa Clara County,51266
109,91702,Azusa,CA,Los Angeles County,51024
110,94501,Alameda,CA,Alameda County,50950
111,92324,Colton,CA,San Bernardino County,50748
112,90003,Los Angeles,CA,Los Angeles County,50694
113,95608,Carmichael,CA,Sacramento County,50575
114,95828,Sacramento,CA,Sacramento County,50500
115,94087,Sunnyvale,CA,Santa Clara County,50288
116,94806,San Pablo,CA,Contra Costa County,50231
117,93727,Fresno,CA,Fresno County,50111
118,92057,Oceanside,CA,San Diego County,50108
119,94591,Vallejo,CA,Solano County,50009
120,93306,Bakersfield,CA,Kern County,49794
121,94541,Hayward,CA,Alameda County,49735
122,92627,Costa Mesa,CA,Orange County,49674
123,90019,Los Angeles,CA,Los Angeles County,49430
124,90723,Paramount,CA,Los Angeles County,49299
125,94122,San Francisco,CA,San Francisco County,49277
126,95051,Santa Clara,CA,Santa Clara County,49177
127,92780,Tustin,CA,Orange County,48992
128,92346,Highland,CA,San Bernardino County,48978
129,93309,Bakersfield,CA,Kern County,48978
130,95355,Modesto,CA,Stanislaus County,48934
131,93312,Bakersfield,CA,Kern County,48913
132,91765,Diamond Bar,CA,Los Angeles County,48578
133,90004,Los Angeles,CA,Los Angeles County,48321
134,92056,Oceanside,CA,San Diego County,48106
135,95020,Gilroy,CA,Santa Clara County,48009
136,91950,National City,CA,San Diego County,47708
137,92563,Murrieta,CA,Riverside County,47530
138,94513,Brentwood,CA,Contra Costa County,47487
139,91343,North Hills,CA,Los Angeles County,47425
140,92064,Poway,CA,San Diego County,47240
141,92404,San Bernardino,CA,San Bernardino County,47075
142,90744,Wilmington,CA,Los Angeles County,47073
143,91344,Granada Hills,CA,Los Angeles County,47029
144,90066,Los Angeles,CA,Los Angeles County,47001
145,92071,Santee,CA,San Diego County,46930
146,90630,Cypress,CA,Orange County,46923
147,95376,Tracy,CA,San Joaquin County,46874
148,92692,Mission Viejo,CA,Orange County,46866
149,92870,Placentia,CA,Orange County,46792
150,90034,Los Angeles,CA,Los Angeles County,46783
151,90731,San Pedro,CA,Los Angeles County,46774
152,91605,North Hollywood,CA,Los Angeles County,46752
153,92833,Fullerton,CA,Orange County,46751
154,93551,Palmdale,CA,Los Angeles County,46609
155,92840,Garden Grove,CA,Orange County,46464
156,92173,San Ysidro,CA,San Diego County,46367
157,92691,Mission Viejo,CA,Orange County,46325
158,91801,Alhambra,CA,Los Angeles County,46282
159,94550,Livermore,CA,Alameda County,46035
160,93720,Fresno,CA,Fresno County,45846
161,92557,Moreno Valley,CA,Riverside County,45832
162,90001,Los Angeles,CA,Los Angeles County,45624
163,92504,Riverside,CA,Riverside County,45623
164,95670,Rancho Cordova,CA,Sacramento County,45575
165,91764,Ontario,CA,San Bernardino County,45296
166,92027,Escondido,CA,San Diego County,45198
167,90037,Los Angeles,CA,Los Angeles County,45161
168,92399,Yucaipa,CA,San Bernardino County,45088
169,90221,Compton,CA,Los Angeles County,45086
170,90063,Los Angeles,CA,Los Angeles County,45041
171,92701,Santa Ana,CA,Orange County,44743
172,92886,Yorba Linda,CA,Orange County,44738
173,92024,Encinitas,CA,San Diego County,44657
174,92407,San Bernardino,CA,San Bernardino County,44594
175,95148,San Jose,CA,Santa Clara County,44357
176,93003,Ventura,CA,Ventura County,44177
177,92020,El Cajon,CA,San Diego County,44171
178,95023,Hollister,CA,San Benito County,43971
179,90638,La Mirada,CA,Los Angeles County,43959
180,91320,Newbury Park,CA,Ventura County,43893
181,92392,Victorville,CA,San Bernardino County,43799
182,92117,San Diego,CA,San Diego County,43766
183,92128,San Diego,CA,San Diego County,43719
184,91748,Rowland Heights,CA,Los Angeles County,43702
185,95125,San Jose,CA,Santa Clara County,43445
186,93611,Clovis,CA,Fresno County,43340
187,92656,Aliso Viejo,CA,Orange County,43215
188,92130,San Diego,CA,San Diego County,43193
189,91789,Walnut,CA,Los Angeles County,43184
190,94583,San Ramon,CA,Contra Costa County,43144
191,93436,Lompoc,CA,Santa Barbara County,43076
192,90813,Long Beach,CA,Los Angeles County,43056
193,91304,Canoga Park,CA,Los Angeles County,42874
194,95124,San Jose,CA,Santa Clara County,42803
195,91786,Upland,CA,San Bernardino County,42772
196,90620,Buena Park,CA,Orange County,42604
197,95350,Modesto,CA,Stanislaus County,42596
198,93458,Santa Maria,CA,Santa Barbara County,42507
199,90220,Compton,CA,Los Angeles County,42468
200,94553,Martinez,CA,Contra Costa County,42245
201,90047,Los Angeles,CA,Los Angeles County,42193
202,94566,Pleasanton,CA,Alameda County,42158
203,92705,Santa Ana,CA,Orange County,42157
204,90247,Gardena,CA,Los Angeles County,42096
205,92243,El Centro,CA,Imperial County,42086
206,92688,Rancho Santa Margarita,CA,Orange County,42026
207,91406,Van Nuys,CA,Los Angeles County,42022
208,92026,Escondido,CA,San Diego County,41751
209,92879,Corona,CA,Riverside County,41608
210,95747,Roseville,CA,Placer County,41524
211,93277,Visalia,CA,Tulare County,41450
212,94577,San Leandro,CA,Alameda County,41391
213,95116,San Jose,CA,Santa Clara County,41355
214,91767,Pomona,CA,Los Angeles County,41298
215,94560,Newark,CA,Alameda County,41261
216,92028,Fallbrook,CA,San Diego County,41168
217,90275,Rancho Palos Verdes,CA,Los Angeles County,41117
218,91352,Sun Valley,CA,Los Angeles County,41087
219,92626,Costa Mesa,CA,Orange County,41047
220,92506,Riverside,CA,Riverside County,40935
221,94014,Daly City,CA,San Mateo County,40766
222,95843,Antelope,CA,Sacramento County,40608
223,90503,Torrance,CA,Los Angeles County,40569
224,94601,Oakland,CA,Alameda County,40560
225,93638,Madera,CA,Madera County,40435
226,94116,San Francisco,CA,San Francisco County,40433
227,92648,Huntington Beach,CA,Orange County,40257
228,92880,Corona,CA,Riverside County,40234
229,91360,Thousand Oaks,CA,Ventura County,40154
230,90065,Los Angeles,CA,Los Angeles County,40100
231,92843,Garden Grove,CA,Orange County,40067
232,91790,West Covina,CA,Los Angeles County,40051
233,92570,Perris,CA,Riverside County,40040
234,92069,San Marcos,CA,San Diego County,39979
235,95037,Morgan Hill,CA,Santa Clara County,39932
236,90006,Los Angeles,CA,Los Angeles County,39848
237,92530,Lake Elsinore,CA,Riverside County,39728
238,90016,Los Angeles,CA,Los Angeles County,39726
239,94303,Palo Alto,CA,Santa Clara County,39638
240,92234,Cathedral City,CA,Riverside County,39609
241,94086,Sunnyvale,CA,Santa Clara County,39606
242,93308,Bakersfield,CA,Kern County,39560
243,91405,Van Nuys,CA,Los Angeles County,39405
244,94521,Concord,CA,Contra Costa County,39355
245,92084,Vista,CA,San Diego County,39339
246,93010,Camarillo,CA,Ventura County,39308
247,95008,Campbell,CA,Santa Clara County,39269
248,92505,Riverside,CA,Riverside County,39258
249,92410,San Bernardino,CA,San Bernardino County,39252
250,91701,Rancho Cucamonga,CA,San Bernardino County,39251
251,92115,San Diego,CA,San Diego County,39241
252,95120,San Jose,CA,Santa Clara County,39164
253,92867,Orange,CA,Orange County,39161
254,94109,San Francisco,CA,San Francisco County,39127
255,95616,Davis,CA,Yolo County,39092
256,90032,Los Angeles,CA,Los Angeles County,39065
257,95132,San Jose,CA,Santa Clara County,39003
258,95628,Fair Oaks,CA,Sacramento County,38978
259,91941,La Mesa,CA,San Diego County,38928
260,90018,Los Angeles,CA,Los Angeles County,38849
261,95336,Manteca,CA,San Joaquin County,38825
262,94010,Burlingame,CA,San Mateo County,38812
263,92571,Perris,CA,Riverside County,38765
264,90002,Los Angeles,CA,Los Angeles County,38545
265,94546,Castro Valley,CA,Alameda County,38489
266,94531,Antioch,CA,Contra Costa County,38379
267,93455,Santa Maria,CA,Santa Barbara County,38367
268,92113,San Diego,CA,San Diego County,38340
269,95831,Sacramento,CA,Sacramento County,38266
270,91306,Winnetka,CA,Los Angeles County,38217
271,95136,San Jose,CA,Santa Clara County,38193
272,94066,San Bruno,CA,San Mateo County,38112
273,90241,Downey,CA,Los Angeles County,38110
274,95648,Lincoln,CA,Placer County,38096
275,95822,Sacramento,CA,Sacramento County,38075
276,90023,Los Angeles,CA,Los Angeles County,38061
277,92544,Hemet,CA,Riverside County,38056
278,92507,Riverside,CA,Riverside County,38043
279,92019,El Cajon,CA,San Diego County,38023
280,95207,Stockton,CA,San Joaquin County,37980
281,92111,San Diego,CA,San Diego County,37912
282,92025,Escondido,CA,San Diego County,37858
283,91733,South El Monte,CA,Los Angeles County,37675
284,93304,Bakersfield,CA,Kern County,37549
285,90501,Torrance,CA,Los Angeles County,37515
286,90242,Downey,CA,Los Angeles County,37360
287,90605,Whittier,CA,Los Angeles County,37303
288,95129,San Jose,CA,Santa Clara County,37267
289,90025,Los Angeles,CA,Los Angeles County,37172
290,92040,Lakeside,CA,San Diego County,37066
291,92009,Carlsbad,CA,San Diego County,37036
292,90808,Long Beach,CA,Los Angeles County,37031
293,95610,Citrus Heights,CA,Sacramento County,36975
294,95762,El Dorado Hills,CA,El Dorado County,36970
295,90043,Los Angeles,CA,Los Angeles County,36952
296,94121,San Francisco,CA,San Francisco County,36883
297,94901,San Rafael,CA,Marin County,36878
298,95351,Modesto,CA,Stanislaus County,36778
299,95240,Lodi,CA,San Joaquin County,36766
300,91606,North Hollywood,CA,Los Angeles County,36625
301,95621,Citrus Heights,CA,Sacramento County,36576
302,93446,Paso Robles,CA,San Luis Obispo County,36481
303,95307,Ceres,CA,Stanislaus County,36475
304,90806,Long Beach,CA,Los Angeles County,36453
305,95678,Roseville,CA,Placer County,36338
306,95403,Santa Rosa,CA,Sonoma County,36302
307,93291,Visalia,CA,Tulare County,36299
308,92802,Anaheim,CA,Orange County,36175
309,90278,Redondo Beach,CA,Los Angeles County,36126
310,90033,Los Angeles,CA,Los Angeles County,36107
311,94403,San Mateo,CA,San Mateo County,36042
312,94551,Livermore,CA,Alameda County,36011
313,92807,Anaheim,CA,Orange County,35923
314,95121,San Jose,CA,Santa Clara County,35884
315,94134,San Francisco,CA,San Francisco County,35875
316,91362,Thousand Oaks,CA,Ventura County,35855
317,95112,San Jose,CA,Santa Clara County,35732
318,94044,Pacifica,CA,San Mateo County,35681
319,94025,Menlo Park,CA,San Mateo County,35491
320,93702,Fresno,CA,Fresno County,35403
321,92869,Orange,CA,Orange County,35366
322,90027,Los Angeles,CA,Los Angeles County,35296
323,91016,Monrovia,CA,Los Angeles County,35268
324,91913,Chula Vista,CA,San Diego County,35250
325,90604,Whittier,CA,Los Angeles County,35179
326,90810,Long Beach,CA,Los Angeles County,35136
327,94954,Petaluma,CA,Sonoma County,35134
328,90505,Torrance,CA,Los Angeles County,35130
329,93021,Moorpark,CA,Ventura County,35120
330,95209,Stockton,CA,San Joaquin County,35065
331,93635,Los Banos,CA,Merced County,35005
332,90046,Los Angeles,CA,Los Angeles County,34964
333,93215,Delano,CA,Kern County,34874
334,94928,Rohnert Park,CA,Sonoma County,34823
335,92374,Redlands,CA,San Bernardino County,34752
336,95901,Marysville,CA,Yuba County,34658
337,92337,Fontana,CA,San Bernardino County,34642
338,94611,Oakland,CA,Alameda County,34630
339,94568,Dublin,CA,Alameda County,34456
340,95380,Turlock,CA,Stanislaus County,34283
341,92307,Apple Valley,CA,San Bernardino County,34266
342,93711,Fresno,CA,Fresno County,34124
343,90815,Long Beach,CA,Los Angeles County,34091
344,92679,Trabuco Canyon,CA,Orange County,33960
345,91387,Canyon Country,CA,Los Angeles County,33921
346,92104,San Diego,CA,San Diego County,33918
347,92065,Ramona,CA,San Diego County,33897
348,95070,Saratoga,CA,Santa Clara County,33872
349,90266,Manhattan Beach,CA,Los Angeles County,33870
350,92109,San Diego,CA,San Diego County,33870
351,96003,Redding,CA,Shasta County,33782
352,94534,Fairfield,CA,Solano County,33707
353,92139,San Diego,CA,San Diego County,33646
354,92102,San Diego,CA,San Diego County,33456
355,92706,Santa Ana,CA,Orange County,33358
356,91311,Chatsworth,CA,Los Angeles County,33337
357,92037,La Jolla,CA,San Diego County,33301
358,92821,Brea,CA,Orange County,33234
359,92131,San Diego,CA,San Diego County,33219
360,93313,Bakersfield,CA,Kern County,33196
361,92672,San Clemente,CA,Orange County,33138
362,95210,Stockton,CA,San Joaquin County,33114
363,91776,San Gabriel,CA,Los Angeles County,33076
364,91780,Temple City,CA,Los Angeles County,33012
365,95695,Woodland,CA,Yolo County,33000
366,92591,Temecula,CA,Riverside County,32958
367,94526,Danville,CA,Contra Costa County,32942
368,95060,Santa Cruz,CA,Santa Cruz County,32794
369,95991,Yuba City,CA,Sutter County,32772
370,91722,Covina,CA,Los Angeles County,32717
371,95404,Santa Rosa,CA,Sonoma County,32608
372,91001,Altadena,CA,Los Angeles County,32598
373,92236,Coachella,CA,Riverside County,32502
374,94605,Oakland,CA,Alameda County,32444
375,94404,San Mateo,CA,San Mateo County,32417
376,94555,Fremont,CA,Alameda County,32297
377,91773,San Dimas,CA,Los Angeles County,32178
378,92806,Anaheim,CA,Orange County,32108
379,91367,Woodland Hills,CA,Los Angeles County,32094
380,91006,Arcadia,CA,Los Angeles County,32085
381,91401,Van Nuys,CA,Los Angeles County,32072
382,92675,San Juan Capistrano,CA,Orange County,32052
383,91763,Montclair,CA,San Bernardino County,31947
384,92620,Irvine,CA,Orange County,31881
385,90277,Redondo Beach,CA,Los Angeles County,31847
386,90045,Los Angeles,CA,Los Angeles County,31846
387,91750,La Verne,CA,Los Angeles County,31768
388,94118,San Francisco,CA,San Francisco County,31768
389,92078,San Marcos,CA,San Diego County,31760
390,95688,Vacaville,CA,Solano County,31580
391,95993,Yuba City,CA,Sutter County,31544
392,90301,Inglewood,CA,Los Angeles County,31505
393,95667,Placerville,CA,El Dorado County,31496
394,94588,Pleasanton,CA,Alameda County,31400
395,93036,Oxnard,CA,Ventura County,31394
396,95407,Santa Rosa,CA,Sonoma County,31370
397,94578,San Leandro,CA,Alameda County,31258
398,90031,Los Angeles,CA,Los Angeles County,31171
399,93311,Bakersfield,CA,Kern County,31100
400,93726,Fresno,CA,Fresno County,31083
401,90804,Long Beach,CA,Los Angeles County,31078
402,91754,Monterey Park,CA,Los Angeles County,31078
403,91351,Canyon Country,CA,Los Angeles County,31029
404,91326,Porter Ranch,CA,Los Angeles County,30978
405,90049,Los Angeles,CA,Los Angeles County,30971
406,90504,Torrance,CA,Los Angeles County,30955
407,93534,Lancaster,CA,Los Angeles County,30946
408,91104,Pasadena,CA,Los Angeles County,30938
409,95205,Stockton,CA,San Joaquin County,30904
410,90059,Los Angeles,CA,Los Angeles County,30891
411,91350,Santa Clarita,CA,Los Angeles County,30819
412,95833,Sacramento,CA,Sacramento County,30647
413,93012,Camarillo,CA,Ventura County,30646
414,94061,Redwood City,CA,San Mateo County,30641
415,95826,Sacramento,CA,Sacramento County,30641
416,92660,Newport Beach,CA,Orange County,30639
417,92649,Huntington Beach,CA,Orange County,30609
418,91711,Claremont,CA,Los Angeles County,30549
419,93245,Lemoore,CA,Kings County,30542
420,92308,Apple Valley,CA,San Bernardino County,30484
421,94804,Richmond,CA,Contra Costa County,30446
422,92584,Menifee,CA,Riverside County,30426
423,92083,Vista,CA,San Diego County,30413
424,93292,Visalia,CA,Tulare County,30378
425,92508,Riverside,CA,Riverside County,30337
426,92545,Hemet,CA,Riverside County,30325
427,95401,Santa Rosa,CA,Sonoma County,30280
428,92653,Laguna Hills,CA,Orange County,30278
429,94523,Pleasant Hill,CA,Contra Costa County,30233
430,91007,Arcadia,CA,Los Angeles County,30229
431,91340,San Fernando,CA,Los Angeles County,30191
432,90621,Buena Park,CA,Orange County,30173
433,94590,Vallejo,CA,Solano County,30107
434,93552,Palmdale,CA,Los Angeles County,30075
435,93117,Goleta,CA,Santa Barbara County,30073
436,90260,Lawndale,CA,Los Angeles County,30019
437,95662,Orangevale,CA,Sacramento County,30006
438,91205,Glendale,CA,Los Angeles County,29988
439,91107,Pasadena,CA,Los Angeles County,29898
440,90712,Lakewood,CA,Los Angeles County,29843
441,91791,West Covina,CA,Los Angeles County,29838
442,90606,Whittier,CA,Los Angeles County,29818
443,92127,San Diego,CA,San Diego County,29815
444,95838,Sacramento,CA,Sacramento County,29787
445,95382,Turlock,CA,Stanislaus County,29775
446,90029,Los Angeles,CA,Los Angeles County,29702
447,92395,Victorville,CA,San Bernardino County,29671
448,93637,Madera,CA,Madera County,29659
449,91214,La Crescenta,CA,Los Angeles County,29577
450,92122,San Diego,CA,San Diego County,29539
451,94561,Oakley,CA,Contra Costa County,29435
452,90807,Long Beach,CA,Los Angeles County,29374
453,93060,Santa Paula,CA,Ventura County,29361
454,91355,Valencia,CA,Los Angeles County,29324
455,92373,Redlands,CA,San Bernardino County,29311
456,93657,Sanger,CA,Fresno County,29289
457,92555,Moreno Valley,CA,Riverside County,29265
458,92253,La Quinta,CA,Riverside County,29184
459,95757,Elk Grove,CA,Sacramento County,29166
460,94606,Oakland,CA,Alameda County,29161
461,93454,Santa Maria,CA,Santa Barbara County,29141
462,95356,Modesto,CA,Stanislaus County,29093
463,94070,San Carlos,CA,San Mateo County,29058
464,94520,Concord,CA,Contra Costa County,28941
465,95820,Sacramento,CA,Sacramento County,28907
466,94040,Mountain View,CA,Santa Clara County,28900
467,95050,Santa Clara,CA,Santa Clara County,28850
468,95118,San Jose,CA,Santa Clara County,28806
469,92223,Beaumont,CA,Riverside County,28784
470,95062,Santa Cruz,CA,Santa Cruz County,28766
471,92881,Corona,CA,Riverside County,28727
472,91746,La Puente,CA,Los Angeles County,28689
473,93705,Fresno,CA,Fresno County,28526
474,95358,Modesto,CA,Stanislaus County,28403
475,92316,Bloomington,CA,San Bernardino County,28308
476,90601,Whittier,CA,Los Angeles County,28300
477,94549,Lafayette,CA,Contra Costa County,28299
478,94952,Petaluma,CA,Sonoma County,28251
479,92831,Fullerton,CA,Orange County,28199
480,90036,Los Angeles,CA,Los Angeles County,28135
481,91792,West Covina,CA,Los Angeles County,28124
482,92841,Garden Grove,CA,Orange County,28034
483,95765,Rocklin,CA,Placer County,28024
484,93612,Clovis,CA,Fresno County,27974
485,95821,Sacramento,CA,Sacramento County,27968
486,94545,Hayward,CA,Alameda County,27927
487,91321,Newhall,CA,Los Angeles County,27923
488,90020,Los Angeles,CA,Los Angeles County,27911
489,94941,Mill Valley,CA,Marin County,27875
490,90230,Culver City,CA,Los Angeles County,27789
491,92124,San Diego,CA,San Diego County,27783
492,95682,Shingle Springs,CA,El Dorado County,27764
493,94589,Vallejo,CA,Solano County,27752
494,91739,Rancho Cucamonga,CA,San Bernardino County,27748
495,91768,Pomona,CA,Los Angeles County,27741
496,95301,Atwater,CA,Merced County,27725
497,95691,West Sacramento,CA,Yolo County,27722
498,95377,Tracy,CA,San Joaquin County,27701
499,93955,Seaside,CA,Monterey County,27659
500,91505,Burbank,CA,Los Angeles County,27626
501,95660,North Highlands,CA,Sacramento County,27616
502,91803,Alhambra,CA,Los Angeles County,27599
503,95835,Sacramento,CA,Sacramento County,27597
504,95361,Oakdale,CA,Stanislaus County,27534
505,95492,Windsor,CA,Sonoma County,27487
506,95661,Roseville,CA,Placer County,27487
507,94585,Suisun City,CA,Solano County,27447
508,93555,Ridgecrest,CA,Kern County,27379
509,95476,Sonoma,CA,Sonoma County,27352
510,90274,Palos Verdes Peninsula,CA,Los Angeles County,27345
511,94117,San Francisco,CA,San Francisco County,27319
512,91601,North Hollywood,CA,Los Angeles County,27284
513,91206,Glendale,CA,Los Angeles County,27257
514,95632,Galt,CA,Sacramento County,27248
515,90802,Long Beach,CA,Los Angeles County,27222
516,90713,Lakewood,CA,Los Angeles County,27153
517,94401,San Mateo,CA,San Mateo County,27144
518,92551,Moreno Valley,CA,Riverside County,27118
519,91325,Northridge,CA,Los Angeles County,27105
520,93706,Fresno,CA,Fresno County,27098
521,95128,San Jose,CA,Santa Clara County,27078
522,90803,Long Beach,CA,Los Angeles County,26984
523,94598,Walnut Creek,CA,Contra Costa County,26916
524,92673,San Clemente,CA,Orange County,26823
525,90680,Stanton,CA,Orange County,26785
526,93662,Selma,CA,Fresno County,26710
527,95842,Sacramento,CA,Sacramento County,26577
528,94510,Benicia,CA,Solano County,26571
529,96002,Redding,CA,Shasta County,26531
530,91301,Agoura Hills,CA,Los Angeles County,26447
531,96001,Redding,CA,Shasta County,26431
532,94124,San Francisco,CA,San Francisco County,26313
533,94114,San Francisco,CA,San Francisco County,26272
534,94903,San Rafael,CA,Marin County,26243
535,91784,Upland,CA,San Bernardino County,26225
536,90222,Compton,CA,Los Angeles County,26204
537,94603,Oakland,CA,Alameda County,26193
538,95973,Chico,CA,Butte County,26104
539,93001,Ventura,CA,Ventura County,26002
540,95131,San Jose,CA,Santa Clara County,25993
541,92220,Banning,CA,Riverside County,25960
542,93004,Ventura,CA,Ventura County,25905
543,93305,Bakersfield,CA,Kern County,25884
544,90062,Los Angeles,CA,Los Angeles County,25773
545,92604,Irvine,CA,Orange County,25768
546,92311,Barstow,CA,San Bernardino County,25765
547,93654,Reedley,CA,Fresno County,25763
548,91423,Sherman Oaks,CA,Los Angeles County,25746
549,91354,Valencia,CA,Los Angeles County,25573
550,94580,San Lorenzo,CA,Alameda County,25569
551,90039,Los Angeles,CA,Los Angeles County,25511
552,95337,Manteca,CA,San Joaquin County,25476
553,94610,Oakland,CA,Alameda County,25467
554,90304,Inglewood,CA,Los Angeles County,25406
555,91356,Tarzana,CA,Los Angeles County,25380
556,91302,Calabasas,CA,Los Angeles County,25359
557,90057,Los Angeles,CA,Los Angeles County,25327
558,91010,Duarte,CA,Los Angeles County,25275
559,92116,San Diego,CA,San Diego County,25241
560,90005,Los Angeles,CA,Los Angeles County,25196
561,95482,Ukiah,CA,Mendocino County,25177
562,94043,Mountain View,CA,Santa Clara County,25171
563,90249,Gardena,CA,Los Angeles County,25103
564,94063,Redwood City,CA,San Mateo County,25041
565,92240,Desert Hot Springs,CA,Riverside County,24991
566,94582,San Ramon,CA,Contra Costa County,24952
567,92629,Dana Point,CA,Orange County,24939
568,92405,San Bernardino,CA,San Bernardino County,24912
569,92008,Carlsbad,CA,San Diego County,24884
570,95824,Sacramento,CA,Sacramento County,24879
571,95926,Chico,CA,Butte County,24866
572,92595,Wildomar,CA,Riverside County,24808
573,94602,Oakland,CA,Alameda County,24772
574,94062,Redwood City,CA,San Mateo County,24763
575,90302,Inglewood,CA,Los Angeles County,24750
576,91741,Glendora,CA,Los Angeles County,24705
577,90746,Carson,CA,Los Angeles County,24599
578,93422,Atascadero,CA,San Luis Obispo County,24558
579,93703,Fresno,CA,Fresno County,24555
580,93940,Monterey,CA,Monterey County,24549
581,93420,Arroyo Grande,CA,San Luis Obispo County,24538
582,94306,Palo Alto,CA,Santa Clara County,24535
583,92543,Hemet,CA,Riverside County,24499
584,94002,Belmont,CA,San Mateo County,24442
585,92883,Corona,CA,Riverside County,24419
586,95219,Stockton,CA,San Joaquin County,24326
587,95928,Chico,CA,Butte County,24301
588,94115,San Francisco,CA,San Francisco County,24285
589,92103,San Diego,CA,San Diego County,24218
590,95117,San Jose,CA,Santa Clara County,24208
591,95472,Sebastopol,CA,Sonoma County,24182
592,91724,Covina,CA,Los Angeles County,24160
593,90064,Los Angeles,CA,Los Angeles County,24113
594,94518,Concord,CA,Contra Costa County,24057
595,91752,Mira Loma,CA,Riverside County,24021
596,95242,Lodi,CA,San Joaquin County,23982
597,91740,Glendora,CA,Los Angeles County,23977
598,96080,Red Bluff,CA,Tehama County,23837
599,95032,Los Gatos,CA,Santa Clara County,23822
600,92120,San Diego,CA,San Diego County,23818
